IXPE                    
1 49954U 21121A   24108.91667824  .00009966  00000+0  76647-3 0  9998
2 49954   0.2296 120.3959 0009337 104.5885 213.5852 14.97306781128849
